NORAD_CAT_ID,OBJECT_NAME,OBJECT_TYPE,EPOCH,MEAN_MOTION,ECCENTRICITY,INCLINATION,RA_OF_ASC_NODE,ARG_OF_PERICENTER,MEAN_ANOMALY,BSTAR,MEAN_MOTION_DOT,MEAN_MOTION_DDOT,TLE_LINE0,TLE_LINE1,TLE_LINE2,SEMIMAJOR_AXIS,PERIOD,APOGEE,PERIGEE,DECAYED
52869.0,STARLINK-4266,PAYLOAD,2022-07-04 22:00:00,15.7327807,0.0001658,53.2154,318.7751,33.6436,147.2741,-0.00037373,-0.00052919,0.0,0 STARLINK-4266,1 52869U 22062AR  22185.91667824 -.00052919  00000-0 -37373-3 0  9997,2 52869  53.2154 318.7751 0001658  33.6436 147.2741 15.73278070  3233,6727.6730000000025,91.529,350.653,348.422,0.0
52869.0,STARLINK-4266,PAYLOAD,2022-07-05 14:00:01,15.73270077,0.0001613,53.2158,315.4755,37.4951,321.3418,-0.00091378,-0.00127327,0.0,0 STARLINK-4266,1 52869U 22062AR  22186.58334491 -.00127327  00000-0 -91378-3 0  9993,2 52869  53.2158 315.4755 0001613  37.4951 321.3418 15.73270077  1301,6727.695,91.529,350.646,348.475,0.0
52869.0,STARLINK-4266,PAYLOAD,2022-07-05 22:00:00,15.73199555,0.0001769,53.216,313.8259,33.6368,54.15600000000001,-0.0009135,-0.00126914,0.0,0 STARLINK-4266,1 52869U 22062AR  22186.91667824 -.00126914  00000-0 -91350-3 0  9990,2 52869  53.2160 313.8259 0001769  33.6368  54.1560 15.73199555  1307,6727.896,91.533,350.952,348.571,0.0
52869.0,STARLINK-4266,PAYLOAD,2022-07-06 06:00:00,15.73120537,0.0001665999999999,53.2158,312.1749,42.5135,134.1868,0.00052225,0.00073065,0.0,0 STARLINK-4266,1 52869U 22062AR  22187.25001157  .00073065  00000-0  52225-3 0  9993,2 52869  53.2158 312.1749 0001666  42.5135 134.1868 15.73120537  3448,6728.121999999999,91.538,351.108,348.866,0.0
52869.0,STARLINK-4266,PAYLOAD,2022-07-06 14:00:01,15.73171615,0.0001912,53.2161,310.5274,39.7785,225.7865,5.7522e-05,7.45e-05,0.0,0 STARLINK-4266,1 52869U 22062AR  22187.58334491  .00007450  00000-0  57522-4 0  9990,2 52869  53.2161 310.5274 0001912  39.7785 225.7865 15.73171615  1300,6727.976,91.535,351.12699999999984,348.555,0.0
52869.0,STARLINK-4266,PAYLOAD,2022-07-06 22:00:00,15.73203582,0.0001954,53.216,308.8773,36.9369,317.5191,-8.7936e-05,-0.00012946,0.0,0 STARLINK-4266,1 52869U 22062AR  22187.91667824 -.00012946  00000-0 -87936-4 0  9996,2 52869  53.2160 308.8773 0001954  36.9369 317.5191 15.73203582  3556,6727.885,91.533,351.065,348.435,0.0
52869.0,STARLINK-4266,PAYLOAD,2022-07-07 04:07:22,15.73206398,0.000186,53.2157,307.6139,40.5088,319.607,0.0002462,0.00034083,0.0,0 STARLINK-4266,1 52869U 22062AR  22188.17178662  .00034083  00000-0  24620-3 0  9996,2 52869  53.2157 307.6139 0001860  40.5088 319.6070 15.73206398  3591,6727.877,91.533,350.99300000000005,348.491,0.0
52869.0,STARLINK-4266,PAYLOAD,2022-07-07 14:00:01,15.73280648,0.0001873,53.2154,305.5787,36.1979,136.1707,-0.00065172,-0.00091419,0.0,0 STARLINK-4266,1 52869U 22062AR  22188.58334491 -.00091419  00000-0 -65172-3 0  9990,2 52869  53.2154 305.5787 0001873  36.1979 136.1707 15.73280648  1304,6727.665,91.528,350.79,348.27,0.0
52869.0,STARLINK-4266,PAYLOAD,2022-07-07 22:00:00,15.73263104,0.0001899,53.2156,303.9282,31.4492,229.8967,-0.00079851,-0.00111522,0.0,0 STARLINK-4266,1 52869U 22062AR  22188.91667824 -.00111522  00000-0 -79851-3 0  9993,2 52869  53.2156 303.9282 0001899  31.4492 229.8967 15.73263104  3717,6727.715,91.53,350.858,348.30300000000005,0.0
52869.0,STARLINK-4266,PAYLOAD,2022-07-08 13:39:53,15.73259837,0.0002011,53.2157,300.6973,40.6937,319.4233,0.00019234,0.00026528,0.0,0 STARLINK-4266,1 52869U 22062AR  22189.56937139  .00026528  00000-0  19234-3 0  9992,2 52869  53.2157 300.6973 0002011  40.6937 319.4233 15.73259837  3329,6727.725,91.53,350.9430000000001,348.237,0.0
52869.0,STARLINK-4266,PAYLOAD,2022-07-08 22:00:01,15.73353633,0.0002022,53.2152,298.9793,31.2031,137.1655,-0.00083604,-0.00117113,0.0,0 STARLINK-4266,1 52869U 22062AR  22189.91668981 -.00117113  00000-0 -83604-3 0  9992,2 52869  53.2152 298.9793 0002022  31.2031 137.1655 15.73353633  3867,6727.456999999999,91.524,350.682,347.962,0.0
52869.0,STARLINK-4266,PAYLOAD,2022-07-09 14:00:01,15.73101922,0.0001966,53.2156,295.6805,25.3355,320.955,-0.00091039,-0.00125976,0.0,0 STARLINK-4266,1 52869U 22062AR  22190.58334491 -.00125976  00000-0 -91039-3 0  9990,2 52869  53.2156 295.6805 0001966  25.3355 320.9550 15.73101922  1303,6728.175,91.539,351.36300000000006,348.717,0.0
52869.0,STARLINK-4266,PAYLOAD,2022-07-09 16:00:00,15.73046462,0.0002029,53.2157,295.2686,24.3059,74.1918,-0.00026298,-0.00037127,0.0,0 STARLINK-4266,1 52869U 22062AR  22190.66667824 -.00037127  00000-0 -26298-3 0  9993,2 52869  53.2157 295.2686 0002029  24.3059  74.1918 15.73046462  3987,6728.333000000001,91.542,351.56300000000016,348.833,0.0
52869.0,STARLINK-4266,PAYLOAD,2022-07-09 20:00:01,15.729978699999998,0.0002073,53.2155,294.4436,22.5324,300.3385,0.0005075,0.00070592,0.0,0 STARLINK-4266,1 52869U 22062AR  22190.83334491  .00070592  00000-0  50750-3 0  9994,2 52869  53.2155 294.4436 0002073  22.5324 300.3385 15.72997870  1306,6728.472,91.545,351.731,348.94199999999995,0.0
52869.0,STARLINK-4266,PAYLOAD,2022-07-10 06:00:00,15.73064639,0.0001934,53.2162,292.38,29.0896,134.6713,0.0010075,0.00142371,0.0,0 STARLINK-4266,1 52869U 22062AR  22191.25001157  .00142371  00000-0  10075-2 0  9991,2 52869  53.2162 292.3800 0001934  29.0896 134.6713 15.73064639  4076,6728.281,91.541,351.44699999999995,348.845,0.0
52869.0,STARLINK-4266,PAYLOAD,2022-07-10 14:00:01,15.73178152,0.0002204,53.2161,290.7329,24.5468,228.0375,0.00036914,0.00051458,0.0,0 STARLINK-4266,1 52869U 22062AR  22191.58334491  .00051458  00000-0  36914-3 0  9993,2 52869  53.2161 290.7329 0002204  24.5468 228.0375 15.73178152  1300,6727.956999999999,91.534,351.305,348.34,0.0
52869.0,STARLINK-4266,PAYLOAD,2022-07-10 22:00:00,15.73241435,0.0002164,53.2157,289.0825,22.5466,318.9641,4.6719e-05,5.952e-05,0.0,0 STARLINK-4266,1 52869U 22062AR  22191.91667824  .00005952  00000-0  46719-4 0  9992,2 52869  53.2157 289.0825 0002164  22.5466 318.9641 15.73241435  4187,6727.776999999999,91.531,351.098,348.186,0.0
52869.0,STARLINK-4266,PAYLOAD,2022-07-11 14:00:01,15.73273789,0.0002244,53.216,285.7843,19.6479,139.865,-0.00028176,-0.00040106,0.0,0 STARLINK-4266,1 52869U 22062AR  22192.58334491 -.00040106  00000-0 -28176-3 0  9995,2 52869  53.2160 285.7843 0002244  19.6479 139.8650 15.73273789  1302,6727.685,91.529,351.059,348.04,0.0
52869.0,STARLINK-4266,PAYLOAD,2022-07-11 22:00:00,15.73295753,0.0002196,53.216,284.1337,18.7022,229.8091,-0.0010987,-0.00152697,0.0,0 STARLINK-4266,1 52869U 22062AR  22192.91667824 -.00152697  00000-0 -10987-2 0  9990,2 52869  53.2160 284.1337 0002196  18.7022 229.8091 15.73295753  1307,6727.621999999999,91.528,350.965,348.01,0.0
52869.0,STARLINK-4266,PAYLOAD,2022-07-12 14:00:01,15.7320916,0.0002473,53.2164,280.8358,19.7663,46.6728,0.00036976,0.00051617,0.0,0 STARLINK-4266,1 52869U 22062AR  22193.58334491  .00051617  00000-0  36976-3 0  9990,2 52869  53.2164 280.8358 0002473  19.7663  46.6728 15.73209160  4444,6727.869000000002,91.533,351.398,348.07,0.0
52869.0,STARLINK-4266,PAYLOAD,2022-07-12 22:00:00,15.73289405,0.0002454,53.2159,279.185,20.4851,134.9347,-0.00054436,-0.00076631,0.0,0 STARLINK-4266,1 52869U 22062AR  22193.91667824 -.00076631  00000-0 -54436-3 0  9992,2 52869  53.2159 279.1850 0002454  20.4851 134.9347 15.73289405  1303,6727.64,91.528,351.156,347.85400000000016,0.0
52869.0,STARLINK-4266,PAYLOAD,2022-07-13 04:00:00,15.73247013,0.0002282,53.2158,277.9469,23.6644,108.5057,-0.00011464,-0.00016713,0.0,0 STARLINK-4266,1 52869U 22062AR  22194.16667824 -.00016713  00000-0 -11464-3 0  9999,2 52869  53.2158 277.9469 0002282  23.6644 108.5057 15.73247013  4530,6727.761,91.53,351.161,348.091,0.0
52869.0,STARLINK-4266,PAYLOAD,2022-07-13 14:00:01,15.73181018,0.0002521,53.2158,275.8874,17.2658,316.1059,-0.00040705,-0.00057324,0.0,0 STARLINK-4266,1 52869U 22062AR  22194.58334491 -.00057324  00000-0 -40705-3 0  9999,2 52869  53.2158 275.8874 0002521  17.2658 316.1059 15.73181018  4606,6727.949000000001,91.534,351.51,348.11800000000005,0.0
52869.0,STARLINK-4266,PAYLOAD,2022-07-13 22:00:00,15.73135028,0.0002492,53.2158,274.2367,19.6207,42.6309,1.2894e-05,1.184e-05,0.0,0 STARLINK-4266,1 52869U 22062AR  22194.91667824  .00001184  00000-0  12894-4 0  9995,2 52869  53.2158 274.2367 0002492  19.6207  42.6309 15.73135028  1302,6728.08,91.537,351.622,348.269,0.0
52869.0,STARLINK-4266,PAYLOAD,2022-07-14 08:00:01,15.731706699999998,0.000254,53.216,272.175,22.5829,240.7246,0.00018118,0.00024852,0.0,0 STARLINK-4266,1 52869U 22062AR  22195.33334491  .00024852  00000-0  18118-3 0  9994,2 52869  53.2160 272.1750 0002540  22.5829 240.7246 15.73170670  4727,6727.979,91.535,351.55300000000005,348.135,0.0
52869.0,STARLINK-4266,PAYLOAD,2022-07-14 14:00:01,15.73155571,0.000281,53.2159,270.9395,21.32,218.6495,0.00048443,0.00067795,0.0,0 STARLINK-4266,1 52869U 22062AR  22195.58334491  .00067795  00000-0  48443-3 0  9998,2 52869  53.2159 270.9395 0002810  21.3200 218.6495 15.73155571  1300,6728.022,91.536,351.777,347.996,0.0
52869.0,STARLINK-4266,PAYLOAD,2022-07-14 22:00:00,15.73243253,0.000261,53.2154,269.2885,19.4374,309.4326,-0.00058608,-0.00082243,0.0,0 STARLINK-4266,1 52869U 22062AR  22195.91667824 -.00082243  00000-0 -58608-3 0  9995,2 52869  53.2154 269.2885 0002610  19.4374 309.4326 15.73243253  1305,6727.772,91.531,351.39300000000014,347.881,0.0
52869.0,STARLINK-4266,PAYLOAD,2022-07-15 06:00:00,15.73178281,0.0002514,53.2153,267.6387,18.7058,39.1074,0.00029467,0.00040901,0.0,0 STARLINK-4266,1 52869U 22062AR  22196.25001157  .00040901  00000-0  29467-3 0  9998,2 52869  53.2153 267.6387 0002514  18.7058  39.1074 15.73178281  4866,6727.956999999999,91.534,351.514,348.131,0.0
52869.0,STARLINK-4266,PAYLOAD,2022-07-15 14:00:01,15.731853400000002,0.0002802,53.2151,265.9912,16.3878,130.3504,0.00060241,0.00084738,0.0,0 STARLINK-4266,1 52869U 22062AR  22196.58334491  .00084738  00000-0  60241-3 0  9995,2 52869  53.2151 265.9912 0002802  16.3878 130.3504 15.73185340  1305,6727.937,91.534,351.68699999999984,347.917,0.0
